[
  {
    "COMMENT": "GENERATED VIA SPACETRACK.ORG API",
    "ORIGINATOR": "18 SPCS",
    "NORAD_CAT_ID": "41335",
    "OBJECT_NAME": "SENTINEL 3A",
    "OBJECT_TYPE": "PAYLOAD",
    "CLASSIFICATION_TYPE": "U",
    "INTLDES": "16011A",
    "EPOCH": "2023-05-23 11:18:11",
    "EPOCH_MICROSECONDS": "999808",
    "MEAN_MOTION": "14.26736008",
    "ECCENTRICITY": "0.0001333",
    "INCLINATION": "98.6221",
    "RA_OF_ASC_NODE": "210.8845",
    "ARG_OF_PERICENTER": "99.6647",
    "MEAN_ANOMALY": "260.4684",
    "EPHEMERIS_TYPE": "0",
    "ELEMENT_SET_NO": "999",
    "REV_AT_EPOCH": "37825",
    "BSTAR": "0.000097369",
    "MEAN_MOTION_DOT": "0.00000192",
    "MEAN_MOTION_DDOT": "0",
    "FILE": "3915293",
    "TLE_LINE0": "0 SENTINEL 3A",
    "TLE_LINE1": "1 41335U 16011A   23143.47097222  .00000192  00000-0  97369-4 0  9991",
    "TLE_LINE2": "2 41335  98.6221 210.8845 0001333  99.6647 260.4684 14.26736008378257",
    "OBJECT_ID": "2016-011A",
    "OBJECT_NUMBER": "41335",
    "SEMIMAJOR_AXIS": "7180.799",
    "PERIOD": "100.930",
    "APOGEE": "803.621",
    "PERIGEE": "801.707",
    "DECAYED": "0"
  },
  {
    "COMMENT": "GENERATED VIA SPACETRACK.ORG API",
    "ORIGINATOR": "18 SPCS",
    "NORAD_CAT_ID": "41335",
    "OBJECT_NAME": "SENTINEL 3A",
    "OBJECT_TYPE": "PAYLOAD",
    "CLASSIFICATION_TYPE": "U",
    "INTLDES": "16011A",
    "EPOCH": "2023-05-23 18:02:08",
    "EPOCH_MICROSECONDS": "897568",
    "MEAN_MOTION": "14.26736142",
    "ECCENTRICITY": "0.0001333",
    "INCLINATION": "98.6221",
    "RA_OF_ASC_NODE": "211.1609",
    "ARG_OF_PERICENTER": "99.5705",
    "MEAN_ANOMALY": "260.5626",
    "EPHEMERIS_TYPE": "0",
    "ELEMENT_SET_NO": "999",
    "REV_AT_EPOCH": "37829",
    "BSTAR": "0.000096883",
    "MEAN_MOTION_DOT": "0.00000191",
    "MEAN_MOTION_DDOT": "0",
    "FILE": "3915591",
    "TLE_LINE0": "0 SENTINEL 3A",
    "TLE_LINE1": "1 41335U 16011A   23143.75149187  .00000191  00000-0  96883-4 0  9999",
    "TLE_LINE2": "2 41335  98.6221 211.1609 0001333  99.5705 260.5626 14.26736142378293",
    "OBJECT_ID": "2016-011A",
    "OBJECT_NUMBER": "41335",
    "SEMIMAJOR_AXIS": "7180.798",
    "PERIOD": "100.930",
    "APOGEE": "803.621",
    "PERIGEE": "801.706",
    "DECAYED": "0"
  },
  {
    "COMMENT": "GENERATED VIA SPACETRACK.ORG API",
    "ORIGINATOR": "18 SPCS",
    "NORAD_CAT_ID": "41335",
    "OBJECT_NAME": "SENTINEL 3A",
    "OBJECT_TYPE": "PAYLOAD",
    "CLASSIFICATION_TYPE": "U",
    "INTLDES": "16011A",
    "EPOCH": "2023-05-23 21:24:07",
    "EPOCH_MICROSECONDS": "348608",
    "MEAN_MOTION": "14.26736143",
    "ECCENTRICITY": "0.0001333",
    "INCLINATION": "98.6221",
    "RA_OF_ASC_NODE": "211.2992",
    "ARG_OF_PERICENTER": "99.5888",
    "MEAN_ANOMALY": "260.5443",
    "EPHEMERIS_TYPE": "0",
    "ELEMENT_SET_NO": "999",
    "REV_AT_EPOCH": "37831",
    "BSTAR": "0.000094216",
    "MEAN_MOTION_DOT": "0.00000184",
    "MEAN_MOTION_DDOT": "0",
    "FILE": "3915766",
    "TLE_LINE0": "0 SENTINEL 3A",
    "TLE_LINE1": "1 41335U 16011A   23143.89175172  .00000184  00000-0  94216-4 0  9997",
    "TLE_LINE2": "2 41335  98.6221 211.2992 0001333  99.5888 260.5443 14.26736143378312",
    "OBJECT_ID": "2016-011A",
    "OBJECT_NUMBER": "41335",
    "SEMIMAJOR_AXIS": "7180.798",
    "PERIOD": "100.930",
    "APOGEE": "803.621",
    "PERIGEE": "801.706",
    "DECAYED": "0"
  },
  {
    "COMMENT": "GENERATED VIA SPACETRACK.ORG API",
    "ORIGINATOR": "18 SPCS",
    "NORAD_CAT_ID": "41335",
    "OBJECT_NAME": "SENTINEL 3A",
    "OBJECT_TYPE": "PAYLOAD",
    "CLASSIFICATION_TYPE": "U",
    "INTLDES": "16011A",
    "EPOCH": "2023-05-24 02:27:05",
    "EPOCH_MICROSECONDS": "19552",
    "MEAN_MOTION": "14.26736238",
    "ECCENTRICITY": "0.0001332",
    "INCLINATION": "98.622",
    "RA_OF_ASC_NODE": "211.5065",
    "ARG_OF_PERICENTER": "99.5872",
    "MEAN_ANOMALY": "260.5458",
    "EPHEMERIS_TYPE": "0",
    "ELEMENT_SET_NO": "999",
    "REV_AT_EPOCH": "37834",
    "BSTAR": "0.000091804",
    "MEAN_MOTION_DOT": "0.00000179",
    "MEAN_MOTION_DDOT": "0",
    "FILE": "3915826",
    "TLE_LINE0": "0 SENTINEL 3A",
    "TLE_LINE1": "1 41335U 16011A   23144.10214143  .00000179  00000-0  91804-4 0  9998",
    "TLE_LINE2": "2 41335  98.6220 211.5065 0001332  99.5872 260.5458 14.26736238378341",
    "OBJECT_ID": "2016-011A",
    "OBJECT_NUMBER": "41335",
    "SEMIMAJOR_AXIS": "7180.798",
    "PERIOD": "100.930",
    "APOGEE": "803.620",
    "PERIGEE": "801.707",
    "DECAYED": "0"
  },
  {
    "COMMENT": "GENERATED VIA SPACETRACK.ORG API",
    "ORIGINATOR": "18 SPCS",
    "NORAD_CAT_ID": "41335",
    "OBJECT_NAME": "SENTINEL 3A",
    "OBJECT_TYPE": "PAYLOAD",
    "CLASSIFICATION_TYPE": "U",
    "INTLDES": "16011A",
    "EPOCH": "2023-05-24 12:33:00",
    "EPOCH_MICROSECONDS": "358848",
    "MEAN_MOTION": "14.26736416",
    "ECCENTRICITY": "0.0001332",
    "INCLINATION": "98.6221",
    "RA_OF_ASC_NODE": "211.9211",
    "ARG_OF_PERICENTER": "99.5831",
    "MEAN_ANOMALY": "260.55",
    "EPHEMERIS_TYPE": "0",
    "ELEMENT_SET_NO": "999",
    "REV_AT_EPOCH": "37840",
    "BSTAR": "0.000090372",
    "MEAN_MOTION_DOT": "0.00000175",
    "MEAN_MOTION_DDOT": "0",
    "FILE": "3916119",
    "TLE_LINE0": "0 SENTINEL 3A",
    "TLE_LINE1": "1 41335U 16011A   23144.52292082  .00000175  00000-0  90372-4 0  9997",
    "TLE_LINE2": "2 41335  98.6221 211.9211 0001332  99.5831 260.5500 14.26736416378407",
    "OBJECT_ID": "2016-011A",
    "OBJECT_NUMBER": "41335",
    "SEMIMAJOR_AXIS": "7180.797",
    "PERIOD": "100.930",
    "APOGEE": "803.619",
    "PERIGEE": "801.706",
    "DECAYED": "0"
  },
  {
    "COMMENT": "GENERATED VIA SPACETRACK.ORG API",
    "ORIGINATOR": "18 SPCS",
    "NORAD_CAT_ID": "41335",
    "OBJECT_NAME": "SENTINEL 3A",
    "OBJECT_TYPE": "PAYLOAD",
    "CLASSIFICATION_TYPE": "U",
    "INTLDES": "16011A",
    "EPOCH": "2023-05-24 14:13:59",
    "EPOCH_MICROSECONDS": "581344",
    "MEAN_MOTION": "14.26736452",
    "ECCENTRICITY": "0.0001333",
    "INCLINATION": "98.6221",
    "RA_OF_ASC_NODE": "211.9902",
    "ARG_OF_PERICENTER": "99.5722",
    "MEAN_ANOMALY": "260.5609",
    "EPHEMERIS_TYPE": "0",
    "ELEMENT_SET_NO": "999",
    "REV_AT_EPOCH": "37841",
    "BSTAR": "0.000089592",
    "MEAN_MOTION_DOT": "0.00000173",
    "MEAN_MOTION_DDOT": "0",
    "FILE": "3916379",
    "TLE_LINE0": "0 SENTINEL 3A",
    "TLE_LINE1": "1 41335U 16011A   23144.59305071  .00000173  00000-0  89592-4 0  9997",
    "TLE_LINE2": "2 41335  98.6221 211.9902 0001333  99.5722 260.5609 14.26736452378415",
    "OBJECT_ID": "2016-011A",
    "OBJECT_NUMBER": "41335",
    "SEMIMAJOR_AXIS": "7180.797",
    "PERIOD": "100.930",
    "APOGEE": "803.620",
    "PERIGEE": "801.705",
    "DECAYED": "0"
  },
  {
    "COMMENT": "GENERATED VIA SPACETRACK.ORG API",
    "ORIGINATOR": "18 SPCS",
    "NORAD_CAT_ID": "41335",
    "OBJECT_NAME": "SENTINEL 3A",
    "OBJECT_TYPE": "PAYLOAD",
    "CLASSIFICATION_TYPE": "U",
    "INTLDES": "16011A",
    "EPOCH": "2023-05-24 14:13:59",
    "EPOCH_MICROSECONDS": "581344",
    "MEAN_MOTION": "14.26736452",
    "ECCENTRICITY": "0.0001333",
    "INCLINATION": "98.6221",
    "RA_OF_ASC_NODE": "211.9902",
    "ARG_OF_PERICENTER": "99.5722",
    "MEAN_ANOMALY": "260.5609",
    "EPHEMERIS_TYPE": "0",
    "ELEMENT_SET_NO": "999",
    "REV_AT_EPOCH": "37841",
    "BSTAR": "0.000089592",
    "MEAN_MOTION_DOT": "0.00000173",
    "MEAN_MOTION_DDOT": "0",
    "FILE": "3916549",
    "TLE_LINE0": "0 SENTINEL 3A",
    "TLE_LINE1": "1 41335U 16011A   23144.59305071  .00000173  00000-0  89592-4 0  9997",
    "TLE_LINE2": "2 41335  98.6221 211.9902 0001333  99.5722 260.5609 14.26736452378415",
    "OBJECT_ID": "2016-011A",
    "OBJECT_NUMBER": "41335",
    "SEMIMAJOR_AXIS": "7180.797",
    "PERIOD": "100.930",
    "APOGEE": "803.620",
    "PERIGEE": "801.705",
    "DECAYED": "0"
  },
  {
    "COMMENT": "GENERATED VIA SPACETRACK.ORG API",
    "ORIGINATOR": "18 SPCS",
    "NORAD_CAT_ID": "41335",
    "OBJECT_NAME": "SENTINEL 3A",
    "OBJECT_TYPE": "PAYLOAD",
    "CLASSIFICATION_TYPE": "U",
    "INTLDES": "16011A",
    "EPOCH": "2023-05-25 13:47:48",
    "EPOCH_MICROSECONDS": "689376",
    "MEAN_MOTION": "14.26736851",
    "ECCENTRICITY": "0.0001333",
    "INCLINATION": "98.622",
    "RA_OF_ASC_NODE": "212.9576",
    "ARG_OF_PERICENTER": "99.3809",
    "MEAN_ANOMALY": "260.7522",
    "EPHEMERIS_TYPE": "0",
    "ELEMENT_SET_NO": "999",
    "REV_AT_EPOCH": "37855",
    "BSTAR": "0.000083776",
    "MEAN_MOTION_DOT": "0.00000159",
    "MEAN_MOTION_DDOT": "0",
    "FILE": "3916775",
    "TLE_LINE0": "0 SENTINEL 3A",
    "TLE_LINE1": "1 41335U 16011A   23145.57486909  .00000159  00000-0  83776-4 0  9998",
    "TLE_LINE2": "2 41335  98.6220 212.9576 0001333  99.3809 260.7522 14.26736851378550",
    "OBJECT_ID": "2016-011A",
    "OBJECT_NUMBER": "41335",
    "SEMIMAJOR_AXIS": "7180.796",
    "PERIOD": "100.930",
    "APOGEE": "803.618",
    "PERIGEE": "801.704",
    "DECAYED": "0"
  }
]